HERMES-4                
1 63833U 25052BP  26068.92081747  .00021364  00000+0  81237-3 0  9996
2 63833  97.4000 323.4610 0002652 154.9526 205.1842 15.26796135 54782
STARLINK-36140          
1 67034U 25294E   26068.93827218  .00032550  00000+0  11874-2 0  9991
2 67034  43.0008  36.9792 0001233 266.4315  93.6396 15.27574492 14837
